STARLINK-37046          
1 68102U 26044B   26083.91667824 -.00010202  00000+0 -67586-4 0  9997
2 68102  97.2837  44.8060 0001800  82.1042  32.5613 15.75195907  3847
STARLINK-37018          
1 68103U 26044C   26083.91667824  .00029062  00000+0  19523-3 0  9997
2 68103  97.2839  44.8096 0001722  84.3312  38.3417 15.75168379  3801
STARLINK-37041          
1 68104U 26044D   26083.91667824 -.00000798  00000+0 -44837-5 0  9993
2 68104  97.2837  44.8120 0001919  59.5909  69.0870 15.75182817  3809
STARLINK-37021          
1 68105U 26044E   26083.91667824 -.00001980  00000+0 -12404-4 0  9992
2 68105  97.2839  44.8147 0001795  60.5648  76.0914 15.75193257  3802
STARLINK-37024          
1 68106U 26044F   26083.95505565  .00162275  00000+0  10677-2 0  9991
2 68106  97.2841  44.8561 0001045 130.8594 229.2762 15.75202606  3885
STARLINK-37005          
1 68107U 26044G   26083.91667824 -.00018156  00000+0 -12108-3 0  9997
2 68107  97.2835  44.8111 0001308 103.7462  22.9142 15.75196779  3800
STARLINK-37017          
1 68108U 26044H   26083.95470310  .00181233  00000+0  11893-2 0  9998
2 68108  97.2840  44.8569 0001692  43.5924 316.5475 15.75210217  3887
STARLINK-36833          
1 68109U 26044J   26083.95329377  .00050962  00000+0  34094-3 0  9998
2 68109  97.2844  44.8578 0001846 136.7499 223.3911 15.75159420  3883
STARLINK-36830          
1 68110U 26044K   26083.95399569  .00093148  00000+0  61852-3 0  9995
2 68110  97.2843  44.8572 0001278 106.5718 253.5687 15.75192422  3880
STARLINK-36791          
1 68111U 26044L   26083.91667824  .00005922  00000+0  40611-4 0  9998
2 68111  97.2839  44.8251 0001611  73.4312  87.2425 15.75153026  3804
STARLINK-36893          
1 68112U 26044M   26083.91667824  .00040317  00000+0  27015-3 0  9998
2 68112  97.2842  44.8263 0001888  60.3567 106.3218 15.75167369  3847
STARLINK-36937          
1 68113U 26044N   26083.91667824  .00045092  00000+0  30188-3 0  9999
2 68113  97.2842  44.8293 0001756  74.2915  98.3740 15.75166587  3803
