CCSDS_OMM_VERS = 2.0
CREATION_DATE  = 
ORIGINATOR     = 

OBJECT_NAME    = STARLINK-37046
OBJECT_ID      = 2026-044B
CENTER_NAME    = EARTH
REF_FRAME      = TEME
TIME_SYSTEM    = UTC
MEAN_ELEMENT_THEORY = SGP/SGP4

EPOCH          = 2026-03-24T22:00:00.999936
MEAN_MOTION    = 15.75195907
ECCENTRICITY   = .00018008
INCLINATION    = 97.2837
RA_OF_ASC_NODE = 44.8060
ARG_OF_PERICENTER = 82.1042
MEAN_ANOMALY   = 32.5613

EPHEMERIS_TYPE = 0
CLASSIFICATION_TYPE = U
NORAD_CAT_ID   = 68102
ELEMENT_SET_NO = 999
REV_AT_EPOCH   = 384
BSTAR          = -.67586175E-4
MEAN_MOTION_DOT = -.10202E-3
MEAN_MOTION_DDOT = 0

CCSDS_OMM_VERS = 2.0
CREATION_DATE  = 
ORIGINATOR     = 

OBJECT_NAME    = STARLINK-37018
OBJECT_ID      = 2026-044C
CENTER_NAME    = EARTH
REF_FRAME      = TEME
TIME_SYSTEM    = UTC
MEAN_ELEMENT_THEORY = SGP/SGP4

EPOCH          = 2026-03-24T22:00:00.999936
MEAN_MOTION    = 15.75168379
ECCENTRICITY   = .00017227
INCLINATION    = 97.2839
RA_OF_ASC_NODE = 44.8096
ARG_OF_PERICENTER = 84.3312
MEAN_ANOMALY   = 38.3417

EPHEMERIS_TYPE = 0
CLASSIFICATION_TYPE = U
NORAD_CAT_ID   = 68103
ELEMENT_SET_NO = 999
REV_AT_EPOCH   = 380
BSTAR          = .19522691E-3
MEAN_MOTION_DOT = .29062E-3
MEAN_MOTION_DDOT = 0

CCSDS_OMM_VERS = 2.0
CREATION_DATE  = 
ORIGINATOR     = 

OBJECT_NAME    = STARLINK-37041
OBJECT_ID      = 2026-044D
CENTER_NAME    = EARTH
REF_FRAME      = TEME
TIME_SYSTEM    = UTC
MEAN_ELEMENT_THEORY = SGP/SGP4

EPOCH          = 2026-03-24T22:00:00.999936
MEAN_MOTION    = 15.75182817
ECCENTRICITY   = .00019198
INCLINATION    = 97.2837
RA_OF_ASC_NODE = 44.8120
ARG_OF_PERICENTER = 59.5909
MEAN_ANOMALY   = 69.0870

EPHEMERIS_TYPE = 0
CLASSIFICATION_TYPE = U
NORAD_CAT_ID   = 68104
ELEMENT_SET_NO = 999
REV_AT_EPOCH   = 380
BSTAR          = -.4483713E-5
MEAN_MOTION_DOT = -.798E-5
MEAN_MOTION_DDOT = 0

CCSDS_OMM_VERS = 2.0
CREATION_DATE  = 
ORIGINATOR     = 

OBJECT_NAME    = STARLINK-37021
OBJECT_ID      = 2026-044E
CENTER_NAME    = EARTH
REF_FRAME      = TEME
TIME_SYSTEM    = UTC
MEAN_ELEMENT_THEORY = SGP/SGP4

EPOCH          = 2026-03-24T22:00:00.999936
MEAN_MOTION    = 15.75193257
ECCENTRICITY   = .00017954
INCLINATION    = 97.2839
RA_OF_ASC_NODE = 44.8147
ARG_OF_PERICENTER = 60.5648
MEAN_ANOMALY   = 76.0914

EPHEMERIS_TYPE = 0
CLASSIFICATION_TYPE = U
NORAD_CAT_ID   = 68105
ELEMENT_SET_NO = 999
REV_AT_EPOCH   = 380
BSTAR          = -.1240394E-4
MEAN_MOTION_DOT = -.198E-4
MEAN_MOTION_DDOT = 0

CCSDS_OMM_VERS = 2.0
CREATION_DATE  = 
ORIGINATOR     = 

OBJECT_NAME    = STARLINK-37024
OBJECT_ID      = 2026-044F
CENTER_NAME    = EARTH
REF_FRAME      = TEME
TIME_SYSTEM    = UTC
MEAN_ELEMENT_THEORY = SGP/SGP4

EPOCH          = 2026-03-24T22:55:16.808160
MEAN_MOTION    = 15.75202606
ECCENTRICITY   = .00010453
INCLINATION    = 97.2841
RA_OF_ASC_NODE = 44.8561
ARG_OF_PERICENTER = 130.8594
MEAN_ANOMALY   = 229.2762

EPHEMERIS_TYPE = 0
CLASSIFICATION_TYPE = U
NORAD_CAT_ID   = 68106
ELEMENT_SET_NO = 999
REV_AT_EPOCH   = 388
BSTAR          = .10677135E-2
MEAN_MOTION_DOT = .162275E-2
MEAN_MOTION_DDOT = 0

CCSDS_OMM_VERS = 2.0
CREATION_DATE  = 
ORIGINATOR     = 

OBJECT_NAME    = STARLINK-37005
OBJECT_ID      = 2026-044G
CENTER_NAME    = EARTH
REF_FRAME      = TEME
TIME_SYSTEM    = UTC
MEAN_ELEMENT_THEORY = SGP/SGP4

EPOCH          = 2026-03-24T22:00:00.999936
MEAN_MOTION    = 15.75196779
ECCENTRICITY   = .00013086
INCLINATION    = 97.2835
RA_OF_ASC_NODE = 44.8111
ARG_OF_PERICENTER = 103.7462
MEAN_ANOMALY   = 22.9142

EPHEMERIS_TYPE = 0
CLASSIFICATION_TYPE = U
NORAD_CAT_ID   = 68107
ELEMENT_SET_NO = 999
REV_AT_EPOCH   = 380
BSTAR          = -.12107609E-3
MEAN_MOTION_DOT = -.18156E-3
MEAN_MOTION_DDOT = 0

CCSDS_OMM_VERS = 2.0
CREATION_DATE  = 
ORIGINATOR     = 

OBJECT_NAME    = STARLINK-37017
OBJECT_ID      = 2026-044H
CENTER_NAME    = EARTH
REF_FRAME      = TEME
TIME_SYSTEM    = UTC
MEAN_ELEMENT_THEORY = SGP/SGP4

EPOCH          = 2026-03-24T22:54:46.347840
MEAN_MOTION    = 15.75210217
ECCENTRICITY   = .00016921
INCLINATION    = 97.2840
RA_OF_ASC_NODE = 44.8569
ARG_OF_PERICENTER = 43.5924
MEAN_ANOMALY   = 316.5475

EPHEMERIS_TYPE = 0
CLASSIFICATION_TYPE = U
NORAD_CAT_ID   = 68108
ELEMENT_SET_NO = 999
REV_AT_EPOCH   = 388
BSTAR          = .11892713E-2
MEAN_MOTION_DOT = .181233E-2
MEAN_MOTION_DDOT = 0

CCSDS_OMM_VERS = 2.0
CREATION_DATE  = 
ORIGINATOR     = 

OBJECT_NAME    = STARLINK-36833
OBJECT_ID      = 2026-044J
CENTER_NAME    = EARTH
REF_FRAME      = TEME
TIME_SYSTEM    = UTC
MEAN_ELEMENT_THEORY = SGP/SGP4

EPOCH          = 2026-03-24T22:52:44.581728
MEAN_MOTION    = 15.75159420
ECCENTRICITY   = .0001846
INCLINATION    = 97.2844
RA_OF_ASC_NODE = 44.8578
ARG_OF_PERICENTER = 136.7499
MEAN_ANOMALY   = 223.3911

EPHEMERIS_TYPE = 0
CLASSIFICATION_TYPE = U
NORAD_CAT_ID   = 68109
ELEMENT_SET_NO = 999
REV_AT_EPOCH   = 388
BSTAR          = .34094147E-3
MEAN_MOTION_DOT = .50962E-3
MEAN_MOTION_DDOT = 0

CCSDS_OMM_VERS = 2.0
CREATION_DATE  = 
ORIGINATOR     = 

OBJECT_NAME    = STARLINK-36830
OBJECT_ID      = 2026-044K
CENTER_NAME    = EARTH
REF_FRAME      = TEME
TIME_SYSTEM    = UTC
MEAN_ELEMENT_THEORY = SGP/SGP4

EPOCH          = 2026-03-24T22:53:45.227616
MEAN_MOTION    = 15.75192422
ECCENTRICITY   = .0001278
INCLINATION    = 97.2843
RA_OF_ASC_NODE = 44.8572
ARG_OF_PERICENTER = 106.5718
MEAN_ANOMALY   = 253.5687

EPHEMERIS_TYPE = 0
CLASSIFICATION_TYPE = U
NORAD_CAT_ID   = 68110
ELEMENT_SET_NO = 999
REV_AT_EPOCH   = 388
BSTAR          = .61852372E-3
MEAN_MOTION_DOT = .93148E-3
MEAN_MOTION_DDOT = 0

CCSDS_OMM_VERS = 2.0
CREATION_DATE  = 
ORIGINATOR     = 

OBJECT_NAME    = STARLINK-36791
OBJECT_ID      = 2026-044L
CENTER_NAME    = EARTH
REF_FRAME      = TEME
TIME_SYSTEM    = UTC
MEAN_ELEMENT_THEORY = SGP/SGP4

EPOCH          = 2026-03-24T22:00:00.999936
MEAN_MOTION    = 15.75153026
ECCENTRICITY   = .00016116
INCLINATION    = 97.2839
RA_OF_ASC_NODE = 44.8251
ARG_OF_PERICENTER = 73.4312
MEAN_ANOMALY   = 87.2425

EPHEMERIS_TYPE = 0
CLASSIFICATION_TYPE = U
NORAD_CAT_ID   = 68111
ELEMENT_SET_NO = 999
REV_AT_EPOCH   = 380
BSTAR          = .406107E-4
MEAN_MOTION_DOT = .5922E-4
MEAN_MOTION_DDOT = 0

CCSDS_OMM_VERS = 2.0
CREATION_DATE  = 
ORIGINATOR     = 

OBJECT_NAME    = STARLINK-36893
OBJECT_ID      = 2026-044M
CENTER_NAME    = EARTH
REF_FRAME      = TEME
TIME_SYSTEM    = UTC
MEAN_ELEMENT_THEORY = SGP/SGP4

EPOCH          = 2026-03-24T22:00:00.999936
MEAN_MOTION    = 15.75167369
ECCENTRICITY   = .00018883
INCLINATION    = 97.2842
RA_OF_ASC_NODE = 44.8263
ARG_OF_PERICENTER = 60.3567
MEAN_ANOMALY   = 106.3218

EPHEMERIS_TYPE = 0
CLASSIFICATION_TYPE = U
NORAD_CAT_ID   = 68112
ELEMENT_SET_NO = 999
REV_AT_EPOCH   = 384
BSTAR          = .27014969E-3
MEAN_MOTION_DOT = .40317E-3
MEAN_MOTION_DDOT = 0

CCSDS_OMM_VERS = 2.0
CREATION_DATE  = 
ORIGINATOR     = 

OBJECT_NAME    = STARLINK-36937
OBJECT_ID      = 2026-044N
CENTER_NAME    = EARTH
REF_FRAME      = TEME
TIME_SYSTEM    = UTC
MEAN_ELEMENT_THEORY = SGP/SGP4

EPOCH          = 2026-03-24T22:00:00.999936
MEAN_MOTION    = 15.75166587
ECCENTRICITY   = .00017567
INCLINATION    = 97.2842
RA_OF_ASC_NODE = 44.8293
ARG_OF_PERICENTER = 74.2915
MEAN_ANOMALY   = 98.3740

EPHEMERIS_TYPE = 0
CLASSIFICATION_TYPE = U
NORAD_CAT_ID   = 68113
ELEMENT_SET_NO = 999
REV_AT_EPOCH   = 380
BSTAR          = .30188426E-3
MEAN_MOTION_DOT = .45092E-3
MEAN_MOTION_DDOT = 0

